     3.04           N: GNSS NAV DATA    G: GPS              RINEX VERSION / TYPE
CHC Navigation      CHC Navigation      20230628 133752 UTC PGM / RUN BY / DATE 
    18                                                      LEAP SECONDS        
                                                            END OF HEADER       
G14 2023 06 20 04 00 00 9.633274748921D-05 1.227817847393D-11 0.000000000000D+00
     4.000000000000D+00 2.190625000000D+01 4.719839457401D-09 3.123377234456D-01
     9.480863809586D-07 3.293351037428D-03 8.914619684219D-06 5.153678033829D+03
     1.872000000000D+05 2.980232238770D-08-1.874504024388D-01-9.313225746155D-09
     9.488606577522D-01 1.979687500000D+02-2.998066780487D+00-7.955688529218D-09
    -7.396736675201D-10 0.000000000000D+00 2.267000000000D+03 0.000000000000D+00
     0.000000000000D+00 0.000000000000D+00-7.916241884232D-09 7.720000000000D+02
     1.872000000000D+05 0.000000000000D+00                                      
G17 2023 06 20 04 00 00 7.189158350229D-04 1.136868377216D-12 0.000000000000D+00
     2.900000000000D+01 1.485625000000D+02 3.838731327140D-09-2.451140347331D+00
     7.610768079758D-06 1.350268127862D-02 6.832182407379D-06 5.153786909103D+03
     1.872000000000D+05 2.179294824600D-07 8.904065957516D-01 3.539025783539D-08
     9.740171462609D-01 2.562812500000D+02-1.404936939183D+00-7.517813147093D-09
     3.750156209059D-11 0.000000000000D+00 2.267000000000D+03 0.000000000000D+00
     0.000000000000D+00 0.000000000000D+00-1.117587089539D-08 2.900000000000D+01
     1.872000000000D+05 0.000000000000D+00                                      
G19 2023 06 20 04 00 00 3.329552710056D-04 5.115907697473D-12 0.000000000000D+00
     2.600000000000D+01 1.276250000000D+02 3.926949287486D-09-2.626503048280D-01
     6.642192602158D-06 9.485177346505D-03 6.800517439842D-06 5.153629953384D+03
     1.872000000000D+05-6.519258022308D-08 9.349277352643D-01-2.998858690262D-07
     9.730556097062D-01 2.605312500000D+02 2.329266583440D+00-7.877828143163D-09
     6.143113028173D-11 0.000000000000D+00 2.267000000000D+03 0.000000000000D+00
     0.000000000000D+00 0.000000000000D+00-1.536682248116D-08 2.600000000000D+01
     1.872000000000D+05 0.000000000000D+00                                      
G21 2023 06 20 04 00 00 1.529548317194D-04-3.410605131648D-13 0.000000000000D+00
     7.400000000000D+01 2.684375000000D+01 4.310536694013D-09-2.413770546798D+00
     1.955777406693D-06 2.465870790184D-02-3.371387720108D-07 5.153612817764D+03
     1.872000000000D+05-1.173466444016D-07 1.789720961130D+00 3.650784492493D-07
     9.615532392949D-01 3.898437500000D+02-7.471157726222D-01-8.071764792832D-09
     1.475061442230D-10 0.000000000000D+00 2.267000000000D+03 0.000000000000D+00
     0.000000000000D+00 0.000000000000D+00-1.024454832077D-08 7.400000000000D+01
     1.872000000000D+05 0.000000000000D+00                                      
G30 2023 06 20 04 00 00-5.098786205053D-04 2.501110429876D-12 0.000000000000D+00
     6.400000000000D+01 9.687500000000D-01 5.673450607705D-09 9.733963789177D-01
     3.017485141754D-07 6.562226684764D-03 5.103647708893D-06 5.153569292068D+03
     1.872000000000D+05 3.166496753693D-08-1.257416433676D+00 6.146728992462D-08
     9.350050826690D-01 2.673750000000D+02-2.568980568124D+00-8.500354073867D-09
    -9.857553463812D-11 0.000000000000D+00 2.267000000000D+03 0.000000000000D+00
     0.000000000000D+00 0.000000000000D+00 3.725290298462D-09 6.400000000000D+01
     1.872000000000D+05 0.000000000000D+00                                      
G02 2023 06 20 04 00 00-5.841176025569D-04 3.637978807092D-12 0.000000000000D+00
     2.900000000000D+01 2.359375000000D+01 4.309822378544D-09-1.916350614644D+00
     1.741573214531D-06 1.594024302904D-02-4.116445779800D-07 5.153561710358D+03
     1.872000000000D+05 1.452863216400D-07 1.794887793218D+00 2.942979335785D-07
     9.672522429441D-01 3.894687500000D+02-1.381708006165D+00-8.205698943155D-09
     1.457203555520D-10 0.000000000000D+00 2.267000000000D+03 0.000000000000D+00
     0.000000000000D+00 0.000000000000D+00-1.769512891769D-08 2.900000000000D+01
     1.872000000000D+05 0.000000000000D+00                                      
G11 2023 06 20 04 00 00-2.425629645586D-04-1.523403625470D-11 0.000000000000D+00
     8.600000000000D+01 4.218750000000D+00 4.390540026472D-09-2.937193291902D+00
     3.576278686523D-07 9.126975201070D-04 2.402812242508D-07 5.153762067795D+03
     1.872000000000D+05-1.490116119385D-08 1.926541755489D+00 1.303851604462D-08
     9.652768602729D-01 3.771875000000D+02-2.887807620619D+00-8.306417424198D-09
     1.285767843106D-10 0.000000000000D+00 2.267000000000D+03 0.000000000000D+00
     0.000000000000D+00 0.000000000000D+00-8.847564458847D-09 5.980000000000D+02
     1.872000000000D+05 0.000000000000D+00                                      
G09 2023 06 20 04 00 00-1.316377893090D-04 8.981260180008D-12 0.000000000000D+00
     2.000000000000D+01-3.196875000000D+01 4.646264964157D-09-1.920203646818D+00
    -1.478940248489D-06 2.414821181446D-03 9.858980774879D-06 5.153595169067D+03
     1.872000000000D+05-2.980232238770D-08-2.335284782648D+00 8.195638656616D-08
     9.562184729890D-01 1.897500000000D+02 1.939992614285D+00-7.793538917893D-09
     6.196686688302D-10 0.000000000000D+00 2.267000000000D+03 0.000000000000D+00
     0.000000000000D+00 0.000000000000D+00 9.313225746155D-10 2.000000000000D+01
     1.872000000000D+05 0.000000000000D+00                                      
